STARLINK-1621           
1 46127U 20057L   25364.00658704  .00142630  00000+0  23591-2 0  9991
2 46127  53.0478 224.9448 0009439  86.0055 274.2033 15.51197961296183
STARLINK-1622           
1 46128U 20057M   25363.98594471  .00135699  00000+0  28642-2 0  9997
2 46128  53.0297 200.9015 0006999 126.3528 233.8124 15.44229058296523
STARLINK-1623           
1 46129U 20057N   25364.25002315  .00810900  00000+0  23917-1 0  9994
2 46129  53.0631 226.6810 0000679  97.7172  21.1087 15.32015061  5831
STARLINK-1624           
1 46130U 20057P   25364.13260490  .00073883  00000+0  12472-2 0  9999
2 46130  53.0496 210.3029 0013654 129.8478 230.3733 15.50898272297655
STARLINK-1625           
1 46131U 20057Q   25364.14079251  .00140703  00000+0  23027-2 0  9998
2 46131  53.0518 230.2205 0012781 118.2476 241.9825 15.51463171297385
STARLINK-1596           
1 46141U 20057AA  25363.93861590  .00100257  00000+0  28698-2 0  9999
2 46141  53.0452 200.7522 0006903  97.9854 262.1931 15.35128945296526
STARLINK-1597           
1 46142U 20057AB  25364.25002315  .01956216  00000+0  80334-1 0  9997
2 46142  53.0538 267.8883 0001039  74.5223 183.4367 15.20277687  5845
STARLINK-1606           
1 46144U 20057AD  25364.04317773  .00049377  00000+0  10420-2 0  9993
2 46144  53.0525 232.7190 0013699 109.3895 250.8592 15.44651322284332
STARLINK-1608           
1 46146U 20057AF  25364.12454098  .00017530  00000+0  11916-2 0  9993
2 46146  53.0531 268.9077 0001745  98.6531 261.4655 15.06437092295583
STARLINK-1629           
1 46150U 20057AK  25364.25002315  .00201304  00000+0  16578-2 0  9996
2 46150  53.0259 211.6572 0005125 100.3066 132.8408 15.69234064  5983
STARLINK-1642           
1 46154U 20057AP  25364.25002315  .00193245  00000+0  17805-2 0  9998
2 46154  53.0442 221.0111 0007656 115.6921 109.9821 15.66486328  5977
STARLINK-1667           
1 46155U 20057AQ  25364.00004630  .00189702  00000+0  40618-2 0  9995
2 46155  53.0312 201.3165 0008141 132.4990  61.3413 15.43565319  5833
STARLINK-1545           
1 46156U 20057AR  25364.02273191  .00116840  00000+0  25399-2 0  9990
2 46156  53.0512 234.0484 0015241 110.9559 249.3079 15.43352100297318
STARLINK-1587           
1 46157U 20057AS  25364.25002315  .00169502  00000+0  22341-2 0  9991
2 46157  53.0467 201.6954 0014918 115.6895  84.1714 15.57240087  5969
STARLINK-1595           
1 46159U 20057AU  25364.25002315  .00108283  00000+0  30063-2 0  9992
2 46159  53.0539 266.3481 0001087 108.1144 300.2134 15.36060867  5838
STARLINK-1598           
1 46160U 20057AV  25364.08953391  .00006648  00000+0  46460-3 0  9995
2 46160  53.0545 249.0671 0001648  83.4898 276.6278 15.06412535297108
STARLINK-1612           
1 46164U 20057AZ  25364.25002315  .00172828  00000+0  26541-2 0  9990
2 46164  53.0425 193.7148 0006035 112.7261 200.4590 15.53170711  5892
STARLINK-1626           
1 46167U 20057BC  25364.25002315  .00059974  00000+0  14734-2 0  9990
2 46167  53.0535 265.7974 0000560  98.0602  50.2685 15.40113626  5834
STARLINK-1627           
1 46168U 20057BD  25363.80257846  .00149337  00000+0  29829-2 0  9996
2 46168  53.0509 204.5005 0015123 131.0701 229.1614 15.45697960296453
STARLINK-1633           
1 46171U 20057BG  25364.15737780  .00045460  00000+0  99452-3 0  9991
2 46171  53.0496 233.0969 0015093 110.2440 250.0190 15.43603667297343
STARLINK-1635           
1 46172U 20057BH  25364.13592630  .00135756  00000+0  28672-2 0  9996
2 46172  53.0509 232.8198 0014519 108.6943 251.5639 15.44129778297342
STARLINK-1640           
1 46173U 20057BJ  25364.25002315  .00971528  00000+0  53850-1 0  9996
2 46173  53.0548 268.2476 0001534  79.6440  52.4861 15.10808254  5832
STARLINK-1641           
1 46174U 20057BK  25364.10331156  .00039276  00000+0  92656-3 0  9993
2 46174  53.0520 256.2876 0002976 110.6710 249.4614 15.41526402295753
GAOFEN-9 05             
1 46232U 20058A   25364.20348738  .00016104  00000+0  57243-3 0  9992
2 46232  97.2346  44.0797 0008520 350.3619   9.7457 15.29046061297760
SAOCOM 1B               
1 46265U 20059A   25364.18840593  .00000335  00000+0  48641-4 0  9994
2 46265  97.8846 187.4555 0001404  83.7609 276.3764 14.82156339288458
GNOMES-1                
1 46266U 20059B   25364.07577398  .00005091  00000+0  42184-3 0  9992
2 46266  97.8069 209.1704 0003677 152.4352 207.7067 14.99290805290246
TYVAK-0172              
1 46267U 20059C   25364.15341051  .00069140  00000+0  11834-2 0  9999
2 46267  97.7273 235.6648 0001658  94.0248 266.1193 15.51013286292297
ION-MK01                
1 46274U 20061C   25364.15852531  .00095097  00000+0  77566-3 0  9995
2 46274  97.2154  75.1266 0001643 157.0847 203.0489 15.70320522296680
ATHENA                  
1 46275U 20061D   25364.12180080  .00020788  00000+0  46085-3 0  9993
2 46275  97.2180  64.4481 0000883  86.0455 274.0895 15.43774466296028
NEMO-HD                 
1 46277U 20061F   25364.16755541  .00016414  00000+0  40342-3 0  9990
2 46277  97.2192  63.0453 0000780  60.7232 299.4093 15.40719939295925
GHGSAT-C1               
1 46278U 20061G   25364.16352234  .00035156  00000+0  43752-3 0  9995
2 46278  97.2298  80.0937 0000803 348.2619  11.8620 15.59873655297030
NAPA-1                  
1 46320U 20061BA  25364.19287429  .00049263  00000+0  86143-3 0  9994
2 46320  97.2750  69.9635 0000735  73.6460 286.4873 15.50494161295411
STARLINK-1654           
1 46326U 20062B   25364.25002315  .00220669  00000+0  38190-2 0  9996
2 46326  53.0517 311.7068 0013917  66.7615 266.4675 15.49555455  5933
STARLINK-1686           
1 46328U 20062D   25364.10232123  .00137978  00000+0  26211-2 0  9995
2 46328  53.0525 292.6128 0014199  76.5977 283.6611 15.47216444294336
STARLINK-1695           
1 46329U 20062E   25364.25002315  .01132330  00000+0  41889-1 0  9995
2 46329  53.0545 307.7666 0001333  82.3449  18.2186 15.24541895  5839
STARLINK-1710           
1 46330U 20062F   25364.25002315  .00236361  00000+0  24794-2 0  9992
2 46330  53.0407 266.9756 0009150  95.8767 321.5115 15.63056819  5866
STARLINK-1719           
1 46331U 20062G   25364.16670139  .00153207  00000+0  33652-2 0  9998
2 46331  53.0511 312.7374 0012893  55.0515 147.6460 15.42913897  5917
STARLINK-1723           
1 46333U 20062J   25364.16670139  .00210640  00000+0  31181-2 0  9990
2 46333  53.0502 311.2639 0015342  69.0944 350.4395 15.53933213  5894
STARLINK-1727           
1 46335U 20062L   25364.16670139  .00191147  00000+0  35092-2 0  9997
2 46335  53.0512 314.0236 0015411  68.4502 241.8386 15.47963044  5768
STARLINK-1738           
1 46336U 20062M   25364.16670139  .00244601  00000+0  28069-2 0  9998
2 46336  53.0425 268.5431 0007934 136.3932 219.5148 15.60721284  5957
STARLINK-1750           
1 46337U 20062N   25364.16670139  .00271156  00000+0  28906-2 0  9994
2 46337  53.0444 280.5634 0007756  52.5671 206.8228 15.62540079  5950
STARLINK-1752           
1 46338U 20062P   25364.16670139  .00202399  00000+0  30806-2 0  9990
2 46338  53.0505 311.7279 0015933  68.7646  16.2988 15.53187923  5892
STARLINK-1759           
1 46340U 20062R   25364.16670139  .00128771  00000+0  28825-2 0  9992
2 46340  53.0314 304.9011 0006302  95.1141 358.6398 15.42519989  5667
STARLINK-1762           
1 46342U 20062T   25364.18167227  .00001083  00000+0  91590-4 0  9992
2 46342  53.0557 328.6539 0001433  89.8186 270.2967 15.06410349293834
STARLINK-1764           
1 46343U 20062U   25364.17058400  .00145807  00000+0  28720-2 0  9990
2 46343  53.0508 293.8564 0015369  78.4346 281.8385 15.46115818294321
STARLINK-1765           
1 46344U 20062V   25364.16670139  .00143268  00000+0  21656-2 0  9999
2 46344  53.0477 285.5447 0012075  66.8579  72.6966 15.53666667  5945
STARLINK-1767           
1 46345U 20062W   25364.16670139  .00402563  00000+0  26087-2 0  9999
2 46345  53.0398 282.5890 0008283 102.5741 116.8740 15.74293358  5983
STARLINK-1547           
1 46347U 20062Y   25364.07455131  .00116137  00000+0  23941-2 0  9999
2 46347  53.0437 255.1373 0006487  82.4043 277.7699 15.45017252294846
STARLINK-1553           
1 46348U 20062Z   25364.02418104  .00058984  00000+0  18081-2 0  9998
2 46348  53.0412 273.7401 0001335 349.9154  10.1820 15.33239090294599
STARLINK-1575           
1 46349U 20062AA  25364.05356514  .00078033  00000+0  10958-2 0  9990
2 46349  53.0375 245.9106 0002682 111.9022 248.2273 15.56050614294985
STARLINK-1646           
1 46351U 20062AC  25364.14507755  .00100950  00000+0  29027-2 0  9999
2 46351  53.0535 306.5038 0002700 118.3050 241.8224 15.35000735294157
STARLINK-1653           
1 46352U 20062AD  25364.09216875  .00097678  00000+0  24929-2 0  9992
2 46352  53.0516 295.8267 0012812  76.6560 283.5871 15.38644061294293
STARLINK-1656           
1 46353U 20062AE  25364.16670139  .00048456  00000+0  28397-2 0  9991
2 46353  53.0543 328.6608 0001254  77.0664  72.1828 15.11339112  5828
STARLINK-1657           
1 46354U 20062AF  25364.16670139  .00194249  00000+0  33831-2 0  9993
2 46354  53.0497 310.6331 0012304  65.8173 345.2416 15.49500122  5738
STARLINK-1661           
1 46355U 20062AG  25364.17431015  .00000563  00000+0  56718-4 0  9999
2 46355  53.0545 328.6798 0001676  88.9935 271.1246 15.06395700293836
STARLINK-1665           
1 46356U 20062AH  25364.16670139  .00087278  00000+0  16650-2 0  9998
2 46356  53.0504 312.7004 0013979  63.6207 101.2719 15.47337392  5924
STARLINK-1666           
1 46357U 20062AJ  25364.15694134  .00109063  00000+0  30658-2 0  9990
2 46357  53.0535 306.3765 0002684 102.6356 257.4946 15.35667086294145
STARLINK-1707           
1 46359U 20062AL  25364.00004630  .00111389  00000+0  23440-2 0  9997
2 46359  53.0319 251.1683 0007503  89.4007 271.2950 15.44427290  5895
STARLINK-1726           
1 46362U 20062AP  25364.16670139  .00210106  00000+0  28486-2 0  9993
2 46362  53.0485 245.4438 0005222  87.7112 337.6852 15.56437806  5953
